ONEWEB-0196             
1 48218U 21031J   25276.62399303  .00000144  00000+0  35413-3 0  9994
2 48218  87.9063 340.8091 0002053 101.6948 258.4412 13.14501510214523
ONEWEB-0183             
1 48219U 21031K   25275.68520176 -.00000123  00000+0 -36746-3 0  9993
2 48219  87.9057 341.0042 0002003  93.5794 266.5565 13.14501061214495
ONEWEB-0185             
1 48220U 21031L   25276.24419729  .00000266  00000+0  68213-3 0  9999
2 48220  87.9061 340.8604 0002305  95.4813 264.6580 13.14503314214490
ONEWEB-0187             
1 48221U 21031M   25276.60483538 -.00000140  00000+0 -41183-3 0  9999
2 48221  87.9062 340.8353 0002173  99.9401 260.1975 13.14502754214551
ONEWEB-0192             
1 48222U 21031N   25276.57482871 -.00000009  00000+0 -59972-4 0  9995
2 48222  87.9064 340.8341 0001924 101.8921 258.2425 13.14500451214464
ONEWEB-0219             
1 48223U 21031P   25277.46762949  .00000308  00000+0  79544-3 0  9998
2 48223  87.9060 340.6296 0002157  97.2841 262.8534 13.14502857214785
ONEWEB-0202             
1 48224U 21031Q   25276.61130603 -.00000033  00000+0 -12258-3 0  9997
2 48224  87.9060 340.8139 0002307 117.5622 242.5742 13.14501253214655
ONEWEB-0204             
1 48225U 21031R   25276.18868744  .00000110  00000+0  26214-3 0  9995
2 48225  87.9061 340.8866 0001943  89.8923 270.2430 13.14501541214498
